YAOGAN-30 07A           
1 45460U 20021A   26068.55604639  .00004701  00000+0  35264-3 0  9998
2 45460  34.9941  97.9026 0004392 231.7665 128.2648 15.02093562325567
STARLINK-5356           
1 56418U 23061AW  26068.36744638  .00001861  00000+0  15286-3 0  9999
2 56418  43.0034 173.4280 0001547 276.3739  83.6928 15.02522148157008
