[{"OBJECT_NAME":"YAOGAN-30 07A","OBJECT_ID":"2020-021A","EPOCH":"2026-03-09T13:20:42.408096","MEAN_MOTION":15.02093562,"ECCENTRICITY":0.0004392,"INCLINATION":34.9941,"RA_OF_ASC_NODE":97.9026,"ARG_OF_PERICENTER":231.7665,"MEAN_ANOMALY":128.2648,"EPHEMERIS_TYPE":0,"CLASSIFICATION_TYPE":"U","NORAD_CAT_ID":45460,"ELEMENT_SET_NO":999,"REV_AT_EPOCH":32556,"BSTAR":0.00035264,"MEAN_MOTION_DOT":4.701e-5,"MEAN_MOTION_DDOT":0},{"OBJECT_NAME":"STARLINK-5356","OBJECT_ID":"2023-061AW","EPOCH":"2026-03-09T08:49:07.367232","MEAN_MOTION":15.02522148,"ECCENTRICITY":0.00015478,"INCLINATION":43.0034,"RA_OF_ASC_NODE":173.428,"ARG_OF_PERICENTER":276.3739,"MEAN_ANOMALY":83.6928,"EPHEMERIS_TYPE":0,"CLASSIFICATION_TYPE":"U","NORAD_CAT_ID":56418,"ELEMENT_SET_NO":999,"REV_AT_EPOCH":15700,"BSTAR":0.00015285899,"MEAN_MOTION_DOT":1.861e-5,"MEAN_MOTION_DDOT":0}]
